{
  "type": "FeatureCollection",
  "features": [
    {
      "type": "Feature",
      "properties": {
        "norad_id": 43823,
        "name": "GEO-KOMPSAT-2A",
        "group": "weather",
        "lat": -0.04582329962579542,
        "lon": -6.638630960058118,
        "alt_km": 35787.146299568194,
        "timestamp": "2025-12-09T09:46:47.290691+00:00",
        "meta_object_name": "GEO-KOMPSAT-2A",
        "meta_object_id": "2018-100A",
        "meta_epoch": "2025-12-08T09:04:40.751616",
        "meta_mean_motion": 1.00270893,
        "meta_eccentricity": 1.774e-05,
        "meta_inclination": 0.0576,
        "meta_ra_of_asc_node": 113.8278,
        "meta_arg_of_pericenter": 87.1447,
        "meta_mean_anomaly": 140.8536,
        "meta_ephemeris_type": 0,
        "meta_classification_type": "U",
        "meta_norad_cat_id": 43823,
        "meta_element_set_no": 999,
        "meta_rev_at_epoch": 2571,
        "meta_bstar": 0,
        "meta_mean_motion_dot": -3.41e-06,
        "meta_mean_motion_ddot": 0,
        "tle_line1": "1 43823U 18100A   25342.37824944 -.00000341  00000+0  00000+0 0  9994",
        "tle_line2": "2 43823   0.0576 113.8278 0000177  87.1447 140.8536  1.00270893 25718"
      },
      "geometry": {
        "type": "Point",
        "coordinates": [
          -6.638630960058118,
          -0.04582329962579542
        ]
      }
    },
    {
      "type": "Feature",
      "properties": {
        "norad_id": 44387,
        "name": "METEOR-M2 2",
        "group": "weather",
        "lat": -38.244834119610374,
        "lon": 136.00317168990927,
        "alt_km": 816.9162092066135,
        "timestamp": "2025-12-09T09:46:47.290703+00:00",
        "meta_object_name": "METEOR-M2 2",
        "meta_object_id": "2019-038A",
        "meta_epoch": "2025-12-09T05:23:03.086592",
        "meta_mean_motion": 14.24289407,
        "meta_eccentricity": 0.00011,
        "meta_inclination": 98.8968,
        "meta_ra_of_asc_node": 322.9097,
        "meta_arg_of_pericenter": 154.7524,
        "meta_mean_anomaly": 205.3708,
        "meta_ephemeris_type": 0,
        "meta_classification_type": "U",
        "meta_norad_cat_id": 44387,
        "meta_element_set_no": 999,
        "meta_rev_at_epoch": 33425,
        "meta_bstar": 0.00020581,
        "meta_mean_motion_dot": 4.29e-06,
        "meta_mean_motion_ddot": 0,
        "tle_line1": "1 44387U 19038A   25343.22434128  .00000429  00000+0  20581-3 0  9993",
        "tle_line2": "2 44387  98.8968 322.9097 0001100 154.7524 205.3708 14.24289407334251"
      },
      "geometry": {
        "type": "Point",
        "coordinates": [
          136.00317168990927,
          -38.244834119610374
        ]
      }
    },
    {
      "type": "Feature",
      "properties": {
        "norad_id": 47719,
        "name": "ARKTIKA-M 1",
        "group": "weather",
        "lat": 59.14894777302408,
        "lon": -153.298206916599,
        "alt_km": 34781.66815368274,
        "timestamp": "2025-12-09T09:46:47.290724+00:00",
        "meta_object_name": "ARKTIKA-M 1",
        "meta_object_id": "2021-016A",
        "meta_epoch": "2025-12-01T02:41:41.634816",
        "meta_mean_motion": 2.00613156,
        "meta_eccentricity": 0.71974708,
        "meta_inclination": 63.1756,
        "meta_ra_of_asc_node": 85.6045,
        "meta_arg_of_pericenter": 269.084,
        "meta_mean_anomaly": 15.7076,
        "meta_ephemeris_type": 0,
        "meta_classification_type": "U",
        "meta_norad_cat_id": 47719,
        "meta_element_set_no": 999,
        "meta_rev_at_epoch": 3481,
        "meta_bstar": 0,
        "meta_mean_motion_dot": -1.2e-07,
        "meta_mean_motion_ddot": 0,
        "tle_line1": "1 47719U 21016A   25335.11228744 -.00000012  00000+0  00000+0 0  9997",
        "tle_line2": "2 47719  63.1756  85.6045 7197470 269.0840  15.7076  2.00613156 34816"
      },
      "geometry": {
        "type": "Point",
        "coordinates": [
          -153.298206916599,
          59.14894777302408
        ]
      }
    },
    {
      "type": "Feature",
      "properties": {
        "norad_id": 49008,
        "name": "FENGYUN 3E",
        "group": "weather",
        "lat": -50.11776714633939,
        "lon": 153.3501683849957,
        "alt_km": 832.420695941988,
        "timestamp": "2025-12-09T09:46:47.290760+00:00",
        "meta_object_name": "FENGYUN 3E",
        "meta_object_id": "2021-062A",
        "meta_epoch": "2025-12-09T00:14:22.512192",
        "meta_mean_motion": 14.19877852,
        "meta_eccentricity": 6.106e-05,
        "meta_inclination": 98.7471,
        "meta_ra_of_asc_node": 343.5749,
        "meta_arg_of_pericenter": 294.211,
        "meta_mean_anomaly": 65.9002,
        "meta_ephemeris_type": 0,
        "meta_classification_type": "U",
        "meta_norad_cat_id": 49008,
        "meta_element_set_no": 999,
        "meta_rev_at_epoch": 22959,
        "meta_bstar": -0.00011244259,
        "meta_mean_motion_dot": -2.83e-06,
        "meta_mean_motion_ddot": 0,
        "tle_line1": "1 49008U 21062A   25343.00998278 -.00000283  00000+0 -11244-3 0  9991",
        "tle_line2": "2 49008  98.7471 343.5749 0000610 294.2110  65.9002 14.19877852229591"
      },
      "geometry": {
        "type": "Point",
        "coordinates": [
          153.3501683849957,
          -50.11776714633939
        ]
      }
    },
    {
      "type": "Feature",
      "properties": {
        "norad_id": 51850,
        "name": "GOES 18",
        "group": "weather",
        "lat": 0.005014289319042535,
        "lon": 88.09518870152084,
        "alt_km": 35788.945242079906,
        "timestamp": "2025-12-09T09:46:47.290779+00:00",
        "meta_object_name": "GOES 18",
        "meta_object_id": "2022-021A",
        "meta_epoch": "2025-12-08T18:05:20.073984",
        "meta_mean_motion": 1.00270752,
        "meta_eccentricity": 7.187e-05,
        "meta_inclination": 0.0115,
        "meta_ra_of_asc_node": 94.7936,
        "meta_arg_of_pericenter": 202.9599,
        "meta_mean_anomaly": 274.3353,
        "meta_ephemeris_type": 0,
        "meta_classification_type": "U",
        "meta_norad_cat_id": 51850,
        "meta_element_set_no": 999,
        "meta_rev_at_epoch": 468,
        "meta_bstar": 0,
        "meta_mean_motion_dot": 9.9e-07,
        "meta_mean_motion_ddot": 0,
        "tle_line1": "1 51850U 22021A   25342.75370456  .00000099  00000+0  00000+0 0  9995",
        "tle_line2": "2 51850   0.0115  94.7936 0000718 202.9599 274.3353  1.00270752  4687"
      },
      "geometry": {
        "type": "Point",
        "coordinates": [
          88.09518870152084,
          0.005014289319042535
        ]
      }
    },
    {
      "type": "Feature",
      "properties": {
        "norad_id": 54234,
        "name": "NOAA 21 (JPSS-2)",
        "group": "weather",
        "lat": -60.37757486077794,
        "lon": 84.04963565389077,
        "alt_km": 835.7071029754125,
        "timestamp": "2025-12-09T09:46:47.290799+00:00",
        "meta_object_name": "NOAA 21 (JPSS-2)",
        "meta_object_id": "2022-150A",
        "meta_epoch": "2025-12-08T22:29:43.789632",
        "meta_mean_motion": 14.19522503,
        "meta_eccentricity": 0.00023665,
        "meta_inclination": 98.7457,
        "meta_ra_of_asc_node": 279.2931,
        "meta_arg_of_pericenter": 45.4509,
        "meta_mean_anomaly": 314.686,
        "meta_ephemeris_type": 0,
        "meta_classification_type": "U",
        "meta_norad_cat_id": 54234,
        "meta_element_set_no": 999,
        "meta_rev_at_epoch": 15955,
        "meta_bstar": 0.00010881071,
        "meta_mean_motion_dot": 1.85e-06,
        "meta_mean_motion_ddot": 0,
        "tle_line1": "1 54234U 22150A   25342.93731238  .00000185  00000+0  10881-3 0  9994",
        "tle_line2": "2 54234  98.7457 279.2931 0002366  45.4509 314.6860 14.19522503159552"
      },
      "geometry": {
        "type": "Point",
        "coordinates": [
          84.04963565389077,
          -60.37757486077794
        ]
      }
    },
    {
      "type": "Feature",
      "properties": {
        "norad_id": 54743,
        "name": "METEOSAT-12 (MTG-I1)",
        "group": "weather",
        "lat": -0.19181114314680345,
        "lon": -135.13591868508007,
        "alt_km": 35779.816034426025,
        "timestamp": "2025-12-09T09:46:47.290820+00:00",
        "meta_object_name": "METEOSAT-12 (MTG-I1)",
        "meta_object_id": "2022-170C",
        "meta_epoch": "2025-12-08T22:09:44.807328",
        "meta_mean_motion": 1.0027505,
        "meta_eccentricity": 0.00014625,
        "meta_inclination": 0.7262,
        "meta_ra_of_asc_node": 31.0199,
        "meta_arg_of_pericenter": 223.8979,
        "meta_mean_anomaly": 155.2153,
        "meta_ephemeris_type": 0,
        "meta_classification_type": "U",
        "meta_norad_cat_id": 54743,
        "meta_element_set_no": 999,
        "meta_rev_at_epoch": 1107,
        "meta_bstar": 0,
        "meta_mean_motion_dot": -4e-08,
        "meta_mean_motion_ddot": 0,
        "tle_line1": "1 54743U 22170C   25342.92343527 -.00000004  00000+0  00000+0 0  9999",
        "tle_line2": "2 54743   0.7262  31.0199 0001462 223.8979 155.2153  1.00275050 11079"
      },
      "geometry": {
        "type": "Point",
        "coordinates": [
          -135.13591868508007,
          -0.19181114314680345
        ]
      }
    }
  ]
}